[{"OBJECT_NAME":"UTMN 2 (RS27S)","OBJECT_ID":"2023-091AP","EPOCH":"2026-03-09T23:09:07.917408","MEAN_MOTION":15.29495965,"ECCENTRICITY":0.00097379,"INCLINATION":97.5194,"RA_OF_ASC_NODE":134.949,"ARG_OF_PERICENTER":76.0788,"MEAN_ANOMALY":284.1534,"EPHEMERIS_TYPE":0,"CLASSIFICATION_TYPE":"U","NORAD_CAT_ID":57203,"ELEMENT_SET_NO":999,"REV_AT_EPOCH":14936,"BSTAR":0.00056135701,"MEAN_MOTION_DOT":0.00016013,"MEAN_MOTION_DDOT":0},{"OBJECT_NAME":"STARLINK-36540","OBJECT_ID":"2026-012U","EPOCH":"2026-03-09T09:32:17.312640","MEAN_MOTION":15.27578005,"ECCENTRICITY":9.935e-5,"INCLINATION":42.9903,"RA_OF_ASC_NODE":316.3747,"ARG_OF_PERICENTER":107.9726,"MEAN_ANOMALY":252.1234,"EPHEMERIS_TYPE":0,"CLASSIFICATION_TYPE":"U","NORAD_CAT_ID":67511,"ELEMENT_SET_NO":999,"REV_AT_EPOCH":771,"BSTAR":0.0010815292,"MEAN_MOTION_DOT":0.00029617,"MEAN_MOTION_DDOT":0}]
